[
  {
    "id": "windows-95",
    "name": "Windows 95",
    "description": "Classic 8-bit gray UI with the iconic retro desktop feel.",
    "thumbnail": "/public/images/windows-95.png",
    "zip": "windows-95.zip"
  },
  {
    "id": "windows-xp",
    "name": "Windows XP",
    "description": "The nostalgic Bliss-inspired blue taskbar and green start button.",
    "thumbnail": "/public/images/windows-xp.png",
    "zip": "windows-xp.zip"
  },
  {
    "id": "windows-vista",
    "name": "Windows Vista",
    "description": "Glossy Aero glass effects and high-shine gradients.",
    "thumbnail": "/public/images/windows-vista.png",
    "zip": "windows-vista.zip"
  },
  {
    "id": "windows-7",
    "name": "Windows 7",
    "description": "Refined transparency and the peak of the Aero design era.",
    "thumbnail": "/public/images/windows-7.png",
    "zip": "windows-7.zip"
  },
  {
    "id": "windows-10",
    "name": "Windows 10",
    "description": "Modern flat design with clean lines and semi-transparent tiles.",
    "thumbnail": "/public/images/windows-10.png",
    "zip": "windows-10.zip"
  },
  {
    "id": "notepad",
    "name": "Notepad",
    "description": "A cozy yellow notepad with hand-drawn doodle message vibes.",
    "thumbnail": "/public/images/notepad.png",
    "zip": "notepad.zip"
  },
  {
    "id": "cyberpunk-red",
    "name": "Cyberpunk Red",
    "description": "Vibrant neon accents and high-contrast typography.",
    "thumbnail": "/public/images/cyberpunk-red.png",
    "zip": "cyberpunk-red.zip"
  },
  {
    "id": "cyberpunk-kabuki",
    "name": "Cyberpunk Kabuki",
    "description": "Neon-drenched style inspired by the bustling nightlife of Kabuki.",
    "thumbnail": "/public/images/cyberpunk-kabuki.png",
    "zip": "cyberpunk-kabuki.zip"
  }
]